{
  "links" : {
    "next" : "https://api.nasa.gov/neo/rest/v1/feed?start_date=2002-06-09&end_date=2002-06-09&detailed=true&api_key=t0TVs3DtDT2H8Oy2Zy8m2eVrNsAVKAexjcZXUckd",
    "prev" : "https://api.nasa.gov/neo/rest/v1/feed?start_date=2002-06-07&end_date=2002-06-07&detailed=true&api_key=t0TVs3DtDT2H8Oy2Zy8m2eVrNsAVKAexjcZXUckd",
    "self" : "https://api.nasa.gov/neo/rest/v1/feed?start_date=2002-06-08&end_date=2002-06-08&detailed=true&api_key=t0TVs3DtDT2H8Oy2Zy8m2eVrNsAVKAexjcZXUckd"
  },
  "element_count" : 5,
  "near_earth_objects" : {
    "2002-06-08" : [ {
      "links" : {
        "self" : "https://api.nasa.gov/neo/rest/v1/neo/3154520?api_key=t0TVs3DtDT2H8Oy2Zy8m2eVrNsAVKAexjcZXUckd"
      },
      "neo_reference_id" : "3154520",
      "name" : "(2003 LH)",
      "nasa_jpl_url" : "http://ssd.jpl.nasa.gov/sbdb.cgi?sstr=3154520",
      "absolute_magnitude_h" : 25.2,
      "estimated_diameter" : {
        "kilometers" : {
          "estimated_diameter_min" : 0.0242412481,
          "estimated_diameter_max" : 0.0542050786
        },
        "meters" : {
          "estimated_diameter_min" : 24.2412481101,
          "estimated_diameter_max" : 54.2050786336
        },
        "miles" : {
          "estimated_diameter_min" : 0.0150628086,
          "estimated_diameter_max" : 0.0336814639
        },
        "feet" : {
          "estimated_diameter_min" : 79.5316564495,
          "estimated_diameter_max" : 177.8381901842
        }
      },
      "is_potentially_hazardous_asteroid" : false,
      "close_approach_data" : [ {
        "close_approach_date" : "2002-06-08",
        "epoch_date_close_approach" : 1023519600000,
        "relative_velocity" : {
          "kilometers_per_second" : "16.6426200327",
          "kilometers_per_hour" : "59913.4321177718",
          "miles_per_hour" : "37227.8767511788"
        },
        "miss_distance" : {
          "astronomical" : "0.3977221023",
          "lunar" : "154.7138977051",
          "kilometers" : "59498380",
          "miles" : "36970580"
        },
        "orbiting_body" : "Earth"
      } ],
      "orbital_data" : {
        "orbit_id" : "14",
        "orbit_determination_date" : "2017-04-06 09:14:03",
        "orbit_uncertainty" : "5",
        "minimum_orbit_intersection" : ".00540514",
        "jupiter_tisserand_invariant" : "6.252",
        "epoch_osculation" : "2458000.5",
        "eccentricity" : ".1497649492563067",
        "semi_major_axis" : ".9605574588908232",
        "inclination" : "10.79535768733347",
        "ascending_node_longitude" : "247.2720911686681",
        "orbital_period" : "343.8614181454677",
        "perihelion_distance" : ".8166996198022722",
        "perihelion_argument" : "238.2594762165134",
        "aphelion_distance" : "1.104415297979374",
        "perihelion_time" : "2457845.829099331823",
        "mean_anomaly" : "161.9301302857661",
        "mean_motion" : "1.046933389449656",
        "equinox" : "J2000"
      }
    }, {
      "links" : {
        "self" : "https://api.nasa.gov/neo/rest/v1/neo/3261402?api_key=t0TVs3DtDT2H8Oy2Zy8m2eVrNsAVKAexjcZXUckd"
      },
      "neo_reference_id" : "3261402",
      "name" : "(2004 VA1)",
      "nasa_jpl_url" : "http://ssd.jpl.nasa.gov/sbdb.cgi?sstr=3261402",
      "absolute_magnitude_h" : 20.5,
      "estimated_diameter" : {
        "kilometers" : {
          "estimated_diameter_min" : 0.2111324448,
          "estimated_diameter_max" : 0.4721064988
        },
        "meters" : {
          "estimated_diameter_min" : 211.1324447897,
          "estimated_diameter_max" : 472.1064988055
        },
        "miles" : {
          "estimated_diameter_min" : 0.1311915784,
          "estimated_diameter_max" : 0.2933532873
        },
        "feet" : {
          "estimated_diameter_min" : 692.6917701639,
          "estimated_diameter_max" : 1548.9058855411
        }
      },
      "is_potentially_hazardous_asteroid" : false,
      "close_approach_data" : [ {
        "close_approach_date" : "2002-06-08",
        "epoch_date_close_approach" : 1023519600000,
        "relative_velocity" : {
          "kilometers_per_second" : "23.3945650772",
          "kilometers_per_hour" : "84220.4342780716",
          "miles_per_hour" : "52331.3026212829"
        },
        "miss_distance" : {
          "astronomical" : "0.4965229851",
          "lunar" : "193.1474456787",
          "kilometers" : "74278784",
          "miles" : "46154696"
        },
        "orbiting_body" : "Earth"
      } ],
      "orbital_data" : {
        "orbit_id" : "21",
        "orbit_determination_date" : "2016-12-25 06:18:19",
        "orbit_uncertainty" : "1",
        "minimum_orbit_intersection" : ".172687",
        "jupiter_tisserand_invariant" : "5.695",
        "epoch_osculation" : "2457800.5",
        "eccentricity" : ".5122844321381634",
        "semi_major_axis" : "1.051392600702162",
        "inclination" : "14.90243924908494",
        "ascending_node_longitude" : "250.7559157913421",
        "orbital_period" : "393.7728793580704",
        "perihelion_distance" : ".5127805392971879",
        "perihelion_argument" : "20.86271149259229",
        "aphelion_distance" : "1.590004662107135",
        "perihelion_time" : "2457952.294742862065",
        "mean_anomaly" : "221.2242988409269",
        "mean_motion" : ".9142325916067986",
        "equinox" : "J2000"
      }
    }, {
      "links" : {
        "self" : "https://api.nasa.gov/neo/rest/v1/neo/3446242?api_key=t0TVs3DtDT2H8Oy2Zy8m2eVrNsAVKAexjcZXUckd"
      },
      "neo_reference_id" : "3446242",
      "name" : "(2009 CR4)",
      "nasa_jpl_url" : "http://ssd.jpl.nasa.gov/sbdb.cgi?sstr=3446242",
      "absolute_magnitude_h" : 21.6,
      "estimated_diameter" : {
        "kilometers" : {
          "estimated_diameter_min" : 0.1272198785,
          "estimated_diameter_max" : 0.2844722965
        },
        "meters" : {
          "estimated_diameter_min" : 127.2198785394,
          "estimated_diameter_max" : 284.4722965033
        },
        "miles" : {
          "estimated_diameter_min" : 0.0790507431,
          "estimated_diameter_max" : 0.1767628354
        },
        "feet" : {
          "estimated_diameter_min" : 417.3880663071,
          "estimated_diameter_max" : 933.3080892598
        }
      },
      "is_potentially_hazardous_asteroid" : false,
      "close_approach_data" : [ {
        "close_approach_date" : "2002-06-08",
        "epoch_date_close_approach" : 1023519600000,
        "relative_velocity" : {
          "kilometers_per_second" : "13.7923685112",
          "kilometers_per_hour" : "49652.5266404716",
          "miles_per_hour" : "30852.1491227975"
        },
        "miss_distance" : {
          "astronomical" : "0.2787862781",
          "lunar" : "108.4478607178",
          "kilometers" : "41705832",
          "miles" : "25914804"
        },
        "orbiting_body" : "Earth"
      } ],
      "orbital_data" : {
        "orbit_id" : "31",
        "orbit_determination_date" : "2017-04-06 09:01:22",
        "orbit_uncertainty" : "0",
        "minimum_orbit_intersection" : ".0705898",
        "jupiter_tisserand_invariant" : "4.020",
        "epoch_osculation" : "2458000.5",
        "eccentricity" : ".4184516349092419",
        "semi_major_axis" : "1.75252257401886",
        "inclination" : "4.779855778890266",
        "ascending_node_longitude" : "324.6898510860065",
        "orbital_period" : "847.4105333918958",
        "perihelion_distance" : "1.019176637705315",
        "perihelion_argument" : "243.6675906280427",
        "aphelion_distance" : "2.485868510332405",
        "perihelion_time" : "2458336.424455117515",
        "mean_anomaly" : "217.2913610617364",
        "mean_motion" : ".4248236077017388",
        "equinox" : "J2000"
      }
    } ]
  }
}